{
    "links": {
        "self": "http://www.neowsapp.com/rest/v1/neo/3439802?api_key=iIulBulltgU6a56xZRHN4H3l9WmuAYTsLGpBGhQ2"
    },
    "id": "3439802",
    "neo_reference_id": "3439802",
    "name": "(2008 WY13)",
    "designation": "2008 WY13",
    "nasa_jpl_url": "http://ssd.jpl.nasa.gov/sbdb.cgi?sstr=3439802",
    "absolute_magnitude_h": 21.6,
    "estimated_diameter": {
        "kilometers": {
            "estimated_diameter_min": 0.1272198785,
            "estimated_diameter_max": 0.2844722965
        },
        "meters": {
            "estimated_diameter_min": 127.2198785394,
            "estimated_diameter_max": 284.4722965033
        },
        "miles": {
            "estimated_diameter_min": 0.0790507431,
            "estimated_diameter_max": 0.1767628354
        },
        "feet": {
            "estimated_diameter_min": 417.3880663071,
            "estimated_diameter_max": 933.3080892598
        }
    },
    "is_potentially_hazardous_asteroid": false,
    "close_approach_data": [
        {
            "close_approach_date": "2008-10-18",
            "close_approach_date_full": "2008-Oct-18 19:55",
            "epoch_date_close_approach": 1224359700000,
            "relative_velocity": {
                "kilometers_per_second": "18.0651966066",
                "kilometers_per_hour": "65034.7077838637",
                "miles_per_hour": "40410.038289368"
            },
            "miss_distance": {
                "astronomical": "0.1966088526",
                "lunar": "76.4808436614",
                "kilometers": "29412265.572103962",
                "miles": "18275934.3601681956"
            },
            "orbiting_body": "Earth"
        }
    ],
    "orbital_data": {
        "orbit_id": "13",
        "orbit_determination_date": "2017-04-06 09:02:09",
        "first_observation_date": "2008-11-20",
        "last_observation_date": "2008-12-02",
        "data_arc_in_days": 12,
        "observations_used": 42,
        "orbit_uncertainty": "8",
        "minimum_orbit_intersection": ".0517342",
        "jupiter_tisserand_invariant": "3.041",
        "epoch_osculation": "2454796.5",
        "eccentricity": ".7365274199943632",
        "semi_major_axis": "2.416858195731074",
        "inclination": "15.65501148231002",
        "ascending_node_longitude": "238.9927347809365",
        "orbital_period": "1372.382531864173",
        "perihelion_distance": ".6367758643370344",
        "perihelion_argument": "70.81579441746334",
        "aphelion_distance": "4.196940527125114",
        "perihelion_time": "2454711.558093922573",
        "mean_anomaly": "22.28175124492198",
        "mean_motion": ".262317532933762",
        "equinox": "J2000",
        "orbit_class": {
            "orbit_class_type": "APO",
            "orbit_class_description": "Near-Earth asteroid orbits which cross the Earth’s orbit similar to that of 1862 Apollo",
            "orbit_class_range": "a (semi-major axis) > 1.0 AU; q (perihelion) < 1.017 AU"
        }
    },
    "is_sentry_object": false
}